{
  "type": "FeatureCollection",
  "features": [
    {
      "type": "Feature",
      "properties": {
        "norad_id": 66597,
        "name": "STARLINK-35820",
        "group": "last-30-days",
        "lat": -41.740146271407696,
        "lon": 22.138621155712762,
        "alt_km": 445.26988394740874,
        "timestamp": "2025-12-23T18:59:30.756154+00:00",
        "meta_object_name": "STARLINK-35820",
        "meta_object_id": "2025-270K",
        "meta_epoch": "2025-12-23T02:19:12.886752",
        "meta_mean_motion": 15.4070508,
        "meta_eccentricity": 0.0003044,
        "meta_inclination": 43.0012,
        "meta_ra_of_asc_node": 132.92,
        "meta_arg_of_pericenter": 255.7586,
        "meta_mean_anomaly": 104.2932,
        "meta_ephemeris_type": 0,
        "meta_classification_type": "U",
        "meta_norad_cat_id": 66597,
        "meta_element_set_no": 999,
        "meta_rev_at_epoch": 605,
        "meta_bstar": 5.1155435e-05,
        "meta_mean_motion_dot": 1.834e-05,
        "meta_mean_motion_ddot": 0,
        "tle_line1": "1 66597U 25270K   25357.09667693  .00001834  00000+0  51155-4 0  9993",
        "tle_line2": "2 66597  43.0012 132.9200 0003044 255.7586 104.2932 15.40705080  6053"
      },
      "geometry": {
        "type": "Point",
        "coordinates": [
          22.138621155712762,
          -41.740146271407696
        ]
      }
    },
    {
      "type": "Feature",
      "properties": {
        "norad_id": 66598,
        "name": "STARLINK-35981",
        "group": "last-30-days",
        "lat": -10.086125756217431,
        "lon": 117.69457959504092,
        "alt_km": 444.08934063491415,
        "timestamp": "2025-12-23T18:59:30.756163+00:00",
        "meta_object_name": "STARLINK-35981",
        "meta_object_id": "2025-270L",
        "meta_epoch": "2025-12-22T16:36:32.317344",
        "meta_mean_motion": 15.40777654,
        "meta_eccentricity": 0.00016022,
        "meta_inclination": 42.9975,
        "meta_ra_of_asc_node": 135.0381,
        "meta_arg_of_pericenter": 258.5949,
        "meta_mean_anomaly": 101.4727,
        "meta_ephemeris_type": 0,
        "meta_classification_type": "U",
        "meta_norad_cat_id": 66598,
        "meta_element_set_no": 999,
        "meta_rev_at_epoch": 573,
        "meta_bstar": 0.0018486578,
        "meta_mean_motion_dot": 0.00077913,
        "meta_mean_motion_ddot": 0,
        "tle_line1": "1 66598U 25270L   25356.69204071  .00077913  00000+0  18487-2 0  9996",
        "tle_line2": "2 66598  42.9975 135.0381 0001602 258.5949 101.4727 15.40777654  5737"
      },
      "geometry": {
        "type": "Point",
        "coordinates": [
          117.69457959504092,
          -10.086125756217431
        ]
      }
    },
    {
      "type": "Feature",
      "properties": {
        "norad_id": 66599,
        "name": "STARLINK-35930",
        "group": "last-30-days",
        "lat": 35.58778414633688,
        "lon": -101.79429731113143,
        "alt_km": 439.1182925139765,
        "timestamp": "2025-12-23T18:59:30.756172+00:00",
        "meta_object_name": "STARLINK-35930",
        "meta_object_id": "2025-270M",
        "meta_epoch": "2025-12-23T08:00:03.000384",
        "meta_mean_motion": 15.40660816,
        "meta_eccentricity": 0.00012635,
        "meta_inclination": 43.0003,
        "meta_ra_of_asc_node": 131.0138,
        "meta_arg_of_pericenter": 278.1426,
        "meta_mean_anomaly": 180.1255,
        "meta_ephemeris_type": 0,
        "meta_classification_type": "U",
        "meta_norad_cat_id": 66599,
        "meta_element_set_no": 999,
        "meta_rev_at_epoch": 610,
        "meta_bstar": 0.0015435933,
        "meta_mean_motion_dot": 0.0006464,
        "meta_mean_motion_ddot": 0,
        "tle_line1": "1 66599U 25270M   25357.33336806  .00064640  00000+0  15436-2 0  9995",
        "tle_line2": "2 66599  43.0003 131.0138 0001263 278.1426 180.1255 15.40660816  6102"
      },
      "geometry": {
        "type": "Point",
        "coordinates": [
          -101.79429731113143,
          35.58778414633688
        ]
      }
    },
    {
      "type": "Feature",
      "properties": {
        "norad_id": 66600,
        "name": "STARLINK-35980",
        "group": "last-30-days",
        "lat": 22.63157650465899,
        "lon": 155.16070713870238,
        "alt_km": 440.71108089844165,
        "timestamp": "2025-12-23T18:59:30.756181+00:00",
        "meta_object_name": "STARLINK-35980",
        "meta_object_id": "2025-270N",
        "meta_epoch": "2025-12-23T01:43:45.061248",
        "meta_mean_motion": 15.4071598,
        "meta_eccentricity": 0.00016224,
        "meta_inclination": 43.0002,
        "meta_ra_of_asc_node": 132.7304,
        "meta_arg_of_pericenter": 275.241,
        "meta_mean_anomaly": 84.8262,
        "meta_ephemeris_type": 0,
        "meta_classification_type": "U",
        "meta_norad_cat_id": 66600,
        "meta_element_set_no": 999,
        "meta_rev_at_epoch": 584,
        "meta_bstar": 0.00089977641,
        "meta_mean_motion_dot": 0.00037487,
        "meta_mean_motion_ddot": 0,
        "tle_line1": "1 66600U 25270N   25357.07204932  .00037487  00000+0  89978-3 0  9995",
        "tle_line2": "2 66600  43.0002 132.7304 0001622 275.2410  84.8262 15.40715980  5848"
      },
      "geometry": {
        "type": "Point",
        "coordinates": [
          155.16070713870238,
          22.63157650465899
        ]
      }
    },
    {
      "type": "Feature",
      "properties": {
        "norad_id": 66601,
        "name": "STARLINK-35978",
        "group": "last-30-days",
        "lat": -38.19410805304964,
        "lon": 71.23044951703234,
        "alt_km": 446.97590932121875,
        "timestamp": "2025-12-23T18:59:30.756190+00:00",
        "meta_object_name": "STARLINK-35978",
        "meta_object_id": "2025-270P",
        "meta_epoch": "2025-12-22T16:49:26.256576",
        "meta_mean_motion": 15.40724614,
        "meta_eccentricity": 3.635e-05,
        "meta_inclination": 43.0011,
        "meta_ra_of_asc_node": 135.1079,
        "meta_arg_of_pericenter": 356.863,
        "meta_mean_anomaly": 3.2224,
        "meta_ephemeris_type": 0,
        "meta_classification_type": "U",
        "meta_norad_cat_id": 66601,
        "meta_element_set_no": 999,
        "meta_rev_at_epoch": 572,
        "meta_bstar": 0.00026821225,
        "meta_mean_motion_dot": 0.00010926,
        "meta_mean_motion_ddot": 0,
        "tle_line1": "1 66601U 25270P   25356.70099834  .00010926  00000+0  26821-3 0  9995",
        "tle_line2": "2 66601  43.0011 135.1079 0000363 356.8630   3.2224 15.40724614  5720"
      },
      "geometry": {
        "type": "Point",
        "coordinates": [
          71.23044951703234,
          -38.19410805304964
        ]
      }
    },
    {
      "type": "Feature",
      "properties": {
        "norad_id": 66602,
        "name": "STARLINK-36050",
        "group": "last-30-days",
        "lat": -26.516033565012364,
        "lon": -18.624198642480707,
        "alt_km": 444.966240621181,
        "timestamp": "2025-12-23T18:59:30.756199+00:00",
        "meta_object_name": "STARLINK-36050",
        "meta_object_id": "2025-270Q",
        "meta_epoch": "2025-12-21T19:21:49.081248",
        "meta_mean_motion": 15.40749091,
        "meta_eccentricity": 0.00034479,
        "meta_inclination": 43.001,
        "meta_ra_of_asc_node": 140.4448,
        "meta_arg_of_pericenter": 267.6242,
        "meta_mean_anomaly": 92.422,
        "meta_ephemeris_type": 0,
        "meta_classification_type": "U",
        "meta_norad_cat_id": 66602,
        "meta_element_set_no": 999,
        "meta_rev_at_epoch": 564,
        "meta_bstar": 0.00045713662,
        "meta_mean_motion_dot": 0.00018872,
        "meta_mean_motion_ddot": 0,
        "tle_line1": "1 66602U 25270Q   25355.80681807  .00018872  00000+0  45714-3 0  9993",
        "tle_line2": "2 66602  43.0010 140.4448 0003447 267.6242  92.4220 15.40749091  5646"
      },
      "geometry": {
        "type": "Point",
        "coordinates": [
          -18.624198642480707,
          -26.516033565012364
        ]
      }
    },
    {
      "type": "Feature",
      "properties": {
        "norad_id": 66603,
        "name": "STARLINK-36048",
        "group": "last-30-days",
        "lat": -18.45578944528533,
        "lon": 107.74709963327854,
        "alt_km": 444.9491221806484,
        "timestamp": "2025-12-23T18:59:30.756208+00:00",
        "meta_object_name": "STARLINK-36048",
        "meta_object_id": "2025-270R",
        "meta_epoch": "2025-12-22T16:39:45.337536",
        "meta_mean_motion": 15.40721586,
        "meta_eccentricity": 0.00016747,
        "meta_inclination": 43.0018,
        "meta_ra_of_asc_node": 135.0558,
        "meta_arg_of_pericenter": 265.539,
        "meta_mean_anomaly": 94.5275,
        "meta_ephemeris_type": 0,
        "meta_classification_type": "U",
        "meta_norad_cat_id": 66603,
        "meta_element_set_no": 999,
        "meta_rev_at_epoch": 578,
        "meta_bstar": 0.0010075194,
        "meta_mean_motion_dot": 0.00042046,
        "meta_mean_motion_ddot": 0,
        "tle_line1": "1 66603U 25270R   25356.69427474  .00042046  00000+0  10075-2 0  9991",
        "tle_line2": "2 66603  43.0018 135.0558 0001674 265.5390  94.5275 15.40721586  5785"
      },
      "geometry": {
        "type": "Point",
        "coordinates": [
          107.74709963327854,
          -18.45578944528533
        ]
      }
    }
  ]
}